AUTCUBE 2               
1 43681U 18084K   23162.34684336  .00004220  00000+0  38624-3 0  9997
2 43681  98.0194 307.4110 0009173 169.2419 190.8999 14.95500850251430
METOP-C                 
1 43689U 18087A   23162.49083857  .00000160  00000+0  93074-4 0  9995
2 43689  98.6831 222.0944 0004067  85.5340 274.6302 14.21514474238316
ES'HAIL 2               
1 43700U 18090A   23162.05886542  .00000141  00000+0  00000+0 0  9998
2 43700   0.0195  66.9170 0001772  48.0769 191.1323  1.00272753 16623
REAKTOR HELLO WORLD     
1 43743U 18096AA  23162.47697939  .00066308  00000+0  89025-3 0  9992
2 43743  97.3171 249.3354 0010453 195.9217 164.1712 15.57652393253286
ELYSIUM STAR 2 & LFF    
1 43760U 18099C   23162.20605430  .00014436  00000+0  98542-3 0  9999
2 43760  97.5661 228.2159 0010223 123.1197 237.1012 15.06254416246953
2018-099D               
1 43761U 18099D   23162.59026038  .00003401  00000+0  29561-3 0  9998
2 43761  97.5738 224.0416 0015140 138.3159 221.9220 14.97551342246733
AISTECHSAT 2            
1 43768U 18099L   23162.43020326  .00004163  00000+0  35347-3 0  9997
2 43768  97.5668 222.3150 0011651 140.7322 219.4748 14.98371665246387
FOX-1CLIFF (AO-95)      
1 43770U 18099N   23162.42109698  .00004998  00000+0  40816-3 0  9992
2 43770  97.5709 224.1166 0012913 153.5848 206.6037 14.99780045246746
RANGE-A                 
1 43772U 18099Q   23162.43254076  .00007039  00000+0  54796-3 0  9997
2 43772  97.5784 226.8748 0009851 115.7279 244.4963 15.01506646246803
RANGE-B                 
1 43773U 18099R   23162.39250828  .00004248  00000+0  35960-3 0  9995
2 43773  97.5656 222.1861 0014242 131.0976 229.1479 14.98457476246692
2018-099T               
1 43775U 18099T   23162.15632113  .00002896  00000+0  24918-3 0  9990
2 43775  97.5718 223.4708 0014377 140.3887 219.8389 14.98072895246661
MOVE-II                 
1 43780U 18099Y   23162.44759704  .00010436  00000+0  76560-3 0  9993
2 43780  97.5724 226.5949 0009899 164.2220 195.9316 15.03637995246876
SNUSAT-2                
1 43782U 18099AA  23162.45260597  .00005606  00000+0  45813-3 0  9993
2 43782  97.5725 224.6539 0014828 127.4286 232.8290 14.99683108246776
SNUGLITE                
1 43784U 18099AC  23162.40511944  .00005224  00000+0  42083-3 0  9997
2 43784  97.5750 224.2808 0011344 136.7831 223.4285 15.00303488246807
ITASAT 1                
1 43786U 18099AE  23162.42204187  .00004103  00000+0  33865-3 0  9992
2 43786  97.5750 225.1506 0013638 141.0027 219.2182 14.99465238246783
KAZSCISAT-1             
1 43787U 18099AF  23162.13868474  .00008819  00000+0  65513-3 0  9999
2 43787  97.5536 224.6937 0009077 141.5451 218.6423 15.03216578246863
EAGLET-I                
1 43790U 18099AJ  23162.46198482  .00004575  00000+0  38084-3 0  9992
2 43790  97.5762 225.6577 0014444 137.0669 223.1684 14.99066195246529
ESEO                    
1 43792U 18099AL  23162.48136316  .00001503  00000+0  13324-3 0  9992
2 43792  97.5698 224.1686 0013491 139.2818 220.9416 14.97620193246536
CSIM-FD                 
1 43793U 18099AM  23162.14547926  .00009638  00000+0  69815-3 0  9992
2 43793  97.5748 227.6133 0017216 144.8351 215.4014 15.04059210246674
ASTROCAST 0.1           
1 43798U 18099AS  23162.41376985  .00009005  00000+0  68067-3 0  9998
2 43798  97.5823 227.2329 0013354 121.9718 238.2808 15.02515298246909
JY1SAT (JO-97)          
1 43803U 18099AX  23162.44827007  .00006428  00000+0  50981-3 0  9996
2 43803  97.5697 225.1625 0014684 110.6523 249.6278 15.00777983246835
SUOMI-100               
1 43804U 18099AY  23162.44342222  .00005845  00000+0  46753-3 0  9992
2 43804  97.5669 224.9678 0019066 127.3744 232.9219 15.00430591246830
AL-FARABI 2             
1 43805U 18099AZ  23162.39252661  .00008610  00000+0  65759-3 0  9994
2 43805  97.5599 225.9372 0012841 122.4576 237.7893 15.02136785246884
CENTAURI-1              
1 43809U 18099BD  23162.41701423  .00003462  00000+0  28747-3 0  9992
2 43809  97.5731 225.0152 0014007 138.2550 221.9745 14.99331808246504
CHOMPTT                 
1 43855U 18104G   23162.06482267  .00022432  00000+0  55784-3 0  9992
2 43855  85.0300 170.3214 0010683 357.3787   2.7406 15.40100005249638
UWE-4                   
1 43880U 18111E   23162.49505069  .00006355  00000+0  48630-3 0  9999
2 43880  97.6316  67.7625 0017864 190.0267 170.0604 15.02117185243515
ZACUBE-2                
1 43907U 18111AH  23162.55076782  .00025962  00000+0  64373-3 0  9998
2 43907  97.1395  42.2919 0013225 226.9726 133.0413 15.40270050248286
MICRODRAGON             
1 43935U 19003D   23162.32543528  .00017345  00000+0  52312-3 0  9998
2 43935  97.1038 182.1122 0012410 341.6854  18.3942 15.34278248244539
M6P                     
1 44109U 19018AF  23162.50939503  .00218932  00000+0  97629-3 0  9995
2 44109  97.3657 261.4764 0020814 244.5420 115.3696 15.83374833235144
FORMOSAT 7-4            
1 44350U 19036M   23162.41720738  .00006615  00000+0  38151-3 0  9999
2 44350  24.0000  68.6578 0000380  69.1302 290.9242 15.09446938217823
METEOR-M2 2             
1 44387U 19038A   23162.54947410  .00000073  00000+0  51373-4 0  9997
2 44387  98.7753 126.4653 0001049  14.9523 345.1686 14.23785708204501
VDNH-80                 
1 44392U 19038G   23162.53701620  .00022326  00000+0  78489-3 0  9994
2 44392  97.6721 143.6141 0013128 330.7894  29.2610 15.29298779217532
D-STAR ONE (LIGHTSAT)   
1 44393U 19038H   23162.22906691  .00024363  00000+0  83890-3 0  9991
2 44393  97.6728 143.3651 0013137 331.9864  28.0667 15.29957060217605
AMGU-1 (AMURSAT)        
1 44394U 19038J   23162.52437426  .00027808  00000+0  90691-3 0  9994
2 44394  97.6702 143.9430 0012350 330.4840  29.5702 15.31695080217670
DOT-1                   
1 44399U 19038P   23162.35975912  .00013261  00000+0  56603-3 0  9990
2 44399  97.6818 140.4685 0018558 342.4064  17.6527 15.22875887217391
SOKRAT                  
1 44404U 19038U   23162.39381015  .00026629  00000+0  88338-3 0  9998
2 44404  97.6716 143.3127 0012807 333.0631  26.9943 15.31149845217624
LUCKY-7                 
1 44406U 19038W   23162.40480806  .00014310  00000+0  59151-3 0  9995
2 44406  97.6800 141.1865 0017686 333.0024  27.0290 15.23958075217442
D-STAR ONE (EXOCONNECT) 
1 44410U 19038AA  23162.25657604  .00081645  00000+0  15812-2 0  9995
2 44410  97.6597 147.3901 0005832 316.6334  43.4455 15.47409423217911
NARSSCUBE-2             
1 44415U 19022E   23162.58945564  .00025360  00000+0  47736-3 0  9997
2 44415  51.6342 166.0321 0008559 297.5907  62.4212 15.48336696215440
DUCHIFAT-3              
1 44854U 19089C   23162.24053443  .00007614  00000+0  51453-3 0  9999
2 44854  36.9612 126.8239 0010524 266.8401  93.1138 15.06148598192008
OPS-SAT                 
1 44878U 19092F   23162.25822027  .00025033  00000+0  75358-3 0  9997
2 44878  97.4759 350.9321 0010081 151.4454 208.7343 15.34296456192881
FLORIPASAT-1            
1 44885U 19093G   23162.48917291  .00004190  00000+0  48733-3 0  9997
2 44885  97.8677 243.7140 0015106  99.2837 261.0087 14.85770588188102
BY70-2                  
1 45857U 20042B   23162.57048936  .00019261  00000+0  19848-2 0  9993
2 45857  97.9252 242.4497 0008321  36.6028 323.5756 14.90255408158706
SALSAT                  
1 46495U 20068K   23162.54597159  .00005061  00000+0  33510-3 0  9999
2 46495  97.7690 110.4890 0016683 135.1977 225.0600 15.07678981148222
NETSAT-4                
1 46504U 20068U   23162.27083727  .00006627  00000+0  43977-3 0  9998
2 46504  97.7618 108.0263 0010973 180.9309 179.1899 15.07536662148018
NETSAT-3                
1 46505U 20068V   23162.50257914  .00005494  00000+0  36708-3 0  9991
2 46505  97.7607 108.0866 0009780 185.6658 174.4460 15.07377386148051
NETSAT-1                
1 46506U 20068W   23162.47815712  .00005058  00000+0  34111-3 0  9996
2 46506  97.7608 107.9427 0007966 196.5352 163.5616 15.07081734148040
NETSAT-2                
1 46507U 20068X   23162.33493398  .00006797  00000+0  45208-3 0  9994
2 46507  97.7607 107.8370 0007074 203.0745 157.0165 15.07471841147976
UVSQ-SAT                
1 47438U 21006AB  23162.38567694  .00015850  00000+0  65108-3 0  9998
2 47438  97.3845 219.5764 0011472 103.9910 256.2604 15.24219983131763
SOMP2B                  
1 47445U 21006AJ  23162.43713254  .00015772  00000+0  66210-3 0  9995
2 47445  97.3811 218.8881 0011349 107.8906 252.3570 15.23488943131747
DIY-1 (ARDUIQUBE)       
1 47963U 21022AH  23162.48538997  .00263517  00000+0  31845-2 0  9999
2 47963  97.4955  70.7977 0001815  97.2143 262.9319 15.59833261121704
CAS-5A                  
1 54684U 22167C   23162.59047211  .00011260  00000+0  62390-3 0  9990
2 54684  97.5617 300.2071 0013089 359.5138   0.6078 15.13899050 27834
